#aV2014  5  1  0  0  0.00000000     288 DD+AD WGS84 FIT  NGA
## 1790 345600.00000000   300.00000000 56778 0.0000000000000
+   32     1  2  3  4  5  6  7  8  9 10 11 12 13 14 15 16 17
+         18 19 20 21 22 23 24 25 26 27 28 29 30 31 32  0  0
+          0  0  0  0  0  0  0  0  0  0  0  0  0  0  0  0  0
+          0  0  0  0  0  0  0  0  0  0  0  0  0  0  0  0  0
+          0  0  0  0  0  0  0  0  0  0  0  0  0  0  0  0  0
++         2  2  2  2  2  2  2  2  2  2  2  2  2  2  2  2  2
++         2  2  2  2  2  2  2  2  2  2  2  2  2  2  2  0  0
++         0  0  0  0  0  0  0  0  0  0  0  0  0  0  0  0  0
++         0  0  0  0  0  0  0  0  0  0  0  0  0  0  0  0  0
++         0  0  0  0  0  0  0  0  0  0  0  0  0  0  0  0  0
%c cc cc ccc ccc cccc cccc cccc cccc ccccc ccccc ccccc ccccc
%c cc cc ccc ccc cccc cccc cccc cccc ccccc ccccc ccccc ccccc
%f  0.0000000  0.000000000  0.00000000000  0.000000000000000
%f  0.0000000  0.000000000  0.00000000000  0.000000000000000
%i    0    0    0    0      0      0      0      0         0
%i    0    0    0    0      0      0      0      0         0
/*      NGA, ST. LOUIS,MO.                                  
/*   EPHEMERIS COMPUTED FROM  1 DAYS OF DATA                
/*   EPOCHA SMOOTHER                                       
/* CCCCCCCCCCCCCCCCCCCCCCCCCCCCCCCCCCCCCCCCCCCCCCCCCCCCCCCCC
*  2014  5  1 10 20  0.00000000
P  1 -11797.321967  22086.187107  -8679.442577     10.669438                    
V  1  -9398.268574   6361.053142  29189.809565      0.013758                    
P  2  20684.977884 -10869.126971 -11857.583243    492.817958                    
V  2  -7661.702468  14152.917140 -26206.667622      0.021491                    
P  3 -11876.028625  10350.253219  20825.357447    358.954148                    
V  3 -13132.960441 -24536.484623   4741.494251      0.050090                    
P  4  17337.395967   2836.388938 -20290.021089      6.861475                    
V  4 -15814.387814  19528.087897 -10715.894452     -0.000423                    
P  5  23435.768638  -3960.217618  11981.932349   -375.633066                    
V  5  14405.301995   5605.850456 -26079.814753      0.023609                    
P  6 -25774.758533  -6779.738312  -1388.039871   -158.088716                    
V  6   1943.602356  -1589.424379 -31991.909520     -0.020087                    
P  7    750.716125  18276.793144  19201.141427    341.376322                    
V  7 -17627.097859  16804.129639 -15684.319150      0.042080                    
P  8   9078.211592  11302.742716  22391.038733     13.255233                    
V  8 -21285.349435  18169.666782  -1135.618085      0.002733                    
P  9  11975.522037   8334.889960  21669.341930    324.263031                    
V  9 -19182.000360  21403.617286   2134.373408      0.028187                    
P 10  24779.606595   9142.420197  -4813.867982   -123.754582                    
V 10  -6138.923930   1607.638507 -30291.651479     -0.015294                    
P 11 -11748.527971  23603.926775   1579.570623   -485.257700                    
V 11  -3729.344979  -4475.840858  30147.589528     -0.031676                    
P 12   8432.072437 -12698.078263 -21785.476434    202.093393                    
V 12  26523.077520   7152.775178   6332.211993      0.024367                    
P 13   4207.134950  26069.245364  -1982.649782      4.225198                    
V 13  -2838.329867  -1806.388232 -32106.876749     -0.038073                    
P 14 -13900.086815 -18229.996660 -13322.892302    176.822958                    
V 14  -2231.493356 -17167.322473  25259.557753     -0.034057                    
P 15   7499.540033 -17859.156806  17991.640893   -176.984811                    
V 15   9976.619079  20985.937587  16908.908524     -0.021521                    
P 16 -23584.888901   2040.620360  12359.843775   -220.620233                    
V 16 -14690.082871  -5399.720137 -26683.286075      0.018366                    
P 17  14717.492276  17184.450020 -13833.085293    -89.555512                    
V 17   2999.255762  17750.832280  24560.701863     -0.031612                    
P 18 -12282.379628 -16109.356297  17789.867861    316.568989                    
V 18  21652.361888   2438.951162  17268.759740      0.023011                    
P 19  -9909.119618  15435.540260  18903.842578   -454.277895                    
V 19  -6963.991456 -23475.840589  15848.683697     -0.022587                    
P 20  -6410.270412  15057.535479 -21101.421291    185.036505                    
V 20 -26135.415155  -4454.183614   4869.600089      0.037777                    
P 21  -5127.455771 -16964.210046  20297.976242   -358.520317                    
V 21  17366.974304 -17507.843465 -11046.908086     -0.022168                    
P 22 -22818.960982 -11078.694247   8360.370350    230.856394                    
V 22  10834.352098  -1347.530169  28336.494156      0.026908                    
P 23  -2719.526862  22592.319832 -13239.153815    -16.892306                    
V 23  -7824.888091 -15526.126501 -25105.963692     -0.031466                    
P 24  15072.261922 -21444.584454  -3992.172781    -27.653552                    
V 24   5575.634741  -1837.445178  31182.274119     -0.006100                    
P 25  -5576.685741 -15569.980875 -20881.987220     23.016763                    
V 25  25869.493790   4669.262602 -10292.677955      0.007630                    
P 26  13615.058945  -5634.410259  21423.179381     92.262178                    
V 26   6652.082564  27996.697289   3327.380461     -0.115770                    
P 27 -14757.206746   3623.606486  21781.801951    -18.165544                    
V 27  -8597.064100 -26287.075112  -1395.833109      0.013371                    
P 28  19794.999991  13700.484945  11969.282537    351.430570                    
V 28 -14041.340666  -2414.740907  27248.978692      0.028213                    
P 29  -4684.631185 -25954.654623  -3323.739776    529.381866                    
V 29   3521.362351   3459.047081 -31534.589630      0.027238                    
P 30   9289.523395  12174.183452  21691.217195     -5.749153                    
V 30 -20091.177885  18883.984124  -2018.194700     -0.041854                    
P 31 -18880.963795   1702.358892 -18576.084896    334.255637                    
V 31  15587.158448 -17955.682002 -17044.646054      0.000007                    
P 32 -18327.689819   7509.250519 -17371.256377   -438.244592                    
V 32 -20833.441755  -8588.203080  18740.071376      0.079373                    
EOF
